O3B MPOWER F1           
1 54755U 22174A   26194.64470438 -.00000021  00000+0  00000+0 0  9992
2 54755   0.0494 339.4621 0006624 143.6462  85.2988  5.00114743 66688
O3B MPOWER F2           
1 54756U 22174B   26194.69562318 -.00000021  00000+0  00000+0 0  9997
2 54756   0.0452 339.8113 0005792 127.1409 253.1085  5.00114836 66773
O3B MPOWER F4           
1 56367U 23059A   26194.75985220 -.00000021  00000+0  00000+0 0  9998
2 56367   0.0629 350.1606 0007730 125.5688 244.3477  5.00115445 59931
O3B MPOWER F3           
1 56368U 23059B   26194.39320778 -.00000020  00000+0  00000+0 0  9999
2 56368   0.0636 349.5076 0006674 119.1693 251.3931  5.00116396 56031
O3B MPOWER F5           
1 58346U 23175A   26194.69409227 -.00000021  00000+0  00000+0 0  9997
2 58346   0.0521   9.2772 0005486 121.0502 229.7178  5.00115904 50766
O3B MPOWER F6           
1 58347U 23175B   26194.39478897 -.00000020  00000+0  00000+0 0  9993
2 58347   0.0539   1.0075 0004433 109.4657 249.5719  5.00115727 49665
O3B MPOWER F7           
1 62362U 24244A   26194.66107933 -.00000021  00000+0  00000+0 0  9994
2 62362   0.0660 343.1410 0005930 125.0451 251.8758  5.00115254 27855
O3B MPOWER F8           
1 62363U 24244B   26194.62802823 -.00000021  00000+0  00000+0 0  9991
2 62363   0.0144   2.2807 0005768  98.5624 259.2191  5.00114999 22191
O3B MPOWER F9           
1 64866U 25153A   26194.76130125 -.00000021  00000+0  00000+0 0  9995
2 64866   0.0612   5.7574 0006715 124.9740 229.3242  5.00115697 20892
O3B MPOWER F10          
1 64867U 25153B   26194.72735260 -.00000021  00000+0  00000+0 0  9993
2 64867   0.0583   2.3674 0002419 245.1257 112.4785  5.00114842 23360
