{"fetched_at":"2026-07-14T06:34:57.533Z","source":"https://celestrak.org/NORAD/elements/gp.php?NAME=O3B&FORMAT=JSON","constellation":"o3b-mpower","records":[{"OBJECT_NAME":"O3B MPOWER F1","OBJECT_ID":"2022-174A","EPOCH":"2026-07-13T15:28:22.458432","CLASSIFICATION_TYPE":"U","MEAN_MOTION":5.00114743,"ECCENTRICITY":0.0006624,"INCLINATION":0.0494,"RA_OF_ASC_NODE":339.4621,"ARG_OF_PERICENTER":143.6462,"MEAN_ANOMALY":85.2988,"EPHEMERIS_TYPE":0,"NORAD_CAT_ID":54755,"ELEMENT_SET_NO":999,"REV_AT_EPOCH":6668,"BSTAR":0,"MEAN_MOTION_DOT":-2.1e-7,"MEAN_MOTION_DDOT":0},{"OBJECT_NAME":"O3B MPOWER F2","OBJECT_ID":"2022-174B","EPOCH":"2026-07-13T16:41:41.842752","CLASSIFICATION_TYPE":"U","MEAN_MOTION":5.00114836,"ECCENTRICITY":0.0005792,"INCLINATION":0.0452,"RA_OF_ASC_NODE":339.8113,"ARG_OF_PERICENTER":127.1409,"MEAN_ANOMALY":253.1085,"EPHEMERIS_TYPE":0,"NORAD_CAT_ID":54756,"ELEMENT_SET_NO":999,"REV_AT_EPOCH":6677,"BSTAR":0,"MEAN_MOTION_DOT":-2.1e-7,"MEAN_MOTION_DDOT":0},{"OBJECT_NAME":"O3B MPOWER F4","OBJECT_ID":"2023-059A","EPOCH":"2026-07-13T18:14:11.230080","CLASSIFICATION_TYPE":"U","MEAN_MOTION":5.00115445,"ECCENTRICITY":0.000773,"INCLINATION":0.0629,"RA_OF_ASC_NODE":350.1606,"ARG_OF_PERICENTER":125.5688,"MEAN_ANOMALY":244.3477,"EPHEMERIS_TYPE":0,"NORAD_CAT_ID":56367,"ELEMENT_SET_NO":999,"REV_AT_EPOCH":5993,"BSTAR":0,"MEAN_MOTION_DOT":-2.1e-7,"MEAN_MOTION_DDOT":0},{"OBJECT_NAME":"O3B MPOWER F3","OBJECT_ID":"2023-059B","EPOCH":"2026-07-13T09:26:13.152192","CLASSIFICATION_TYPE":"U","MEAN_MOTION":5.00116396,"ECCENTRICITY":0.00066749,"INCLINATION":0.0636,"RA_OF_ASC_NODE":349.5076,"ARG_OF_PERICENTER":119.1693,"MEAN_ANOMALY":251.3931,"EPHEMERIS_TYPE":0,"NORAD_CAT_ID":56368,"ELEMENT_SET_NO":999,"REV_AT_EPOCH":5603,"BSTAR":0,"MEAN_MOTION_DOT":-2e-7,"MEAN_MOTION_DDOT":0},{"OBJECT_NAME":"O3B MPOWER F5","OBJECT_ID":"2023-175A","EPOCH":"2026-07-13T16:39:29.572128","CLASSIFICATION_TYPE":"U","MEAN_MOTION":5.00115904,"ECCENTRICITY":0.0005486,"INCLINATION":0.0521,"RA_OF_ASC_NODE":9.2772,"ARG_OF_PERICENTER":121.0502,"MEAN_ANOMALY":229.7178,"EPHEMERIS_TYPE":0,"NORAD_CAT_ID":58346,"ELEMENT_SET_NO":999,"REV_AT_EPOCH":5076,"BSTAR":0,"MEAN_MOTION_DOT":-2.1e-7,"MEAN_MOTION_DDOT":0},{"OBJECT_NAME":"O3B MPOWER F6","OBJECT_ID":"2023-175B","EPOCH":"2026-07-13T09:28:29.767008","CLASSIFICATION_TYPE":"U","MEAN_MOTION":5.00115727,"ECCENTRICITY":0.0004433,"INCLINATION":0.0539,"RA_OF_ASC_NODE":1.0075,"ARG_OF_PERICENTER":109.4657,"MEAN_ANOMALY":249.5719,"EPHEMERIS_TYPE":0,"NORAD_CAT_ID":58347,"ELEMENT_SET_NO":999,"REV_AT_EPOCH":4966,"BSTAR":0,"MEAN_MOTION_DOT":-2e-7,"MEAN_MOTION_DDOT":0},{"OBJECT_NAME":"O3B MPOWER F7","OBJECT_ID":"2024-244A","EPOCH":"2026-07-13T15:51:57.254112","CLASSIFICATION_TYPE":"U","MEAN_MOTION":5.00115254,"ECCENTRICITY":0.000593,"INCLINATION":0.066,"RA_OF_ASC_NODE":343.141,"ARG_OF_PERICENTER":125.0451,"MEAN_ANOMALY":251.8758,"EPHEMERIS_TYPE":0,"NORAD_CAT_ID":62362,"ELEMENT_SET_NO":999,"REV_AT_EPOCH":2785,"BSTAR":0,"MEAN_MOTION_DOT":-2.1e-7,"MEAN_MOTION_DDOT":0},{"OBJECT_NAME":"O3B MPOWER F8","OBJECT_ID":"2024-244B","EPOCH":"2026-07-13T15:04:21.639072","CLASSIFICATION_TYPE":"U","MEAN_MOTION":5.00114999,"ECCENTRICITY":0.0005768,"INCLINATION":0.0144,"RA_OF_ASC_NODE":2.2807,"ARG_OF_PERICENTER":98.5624,"MEAN_ANOMALY":259.2191,"EPHEMERIS_TYPE":0,"NORAD_CAT_ID":62363,"ELEMENT_SET_NO":999,"REV_AT_EPOCH":2219,"BSTAR":0,"MEAN_MOTION_DOT":-2.1e-7,"MEAN_MOTION_DDOT":0},{"OBJECT_NAME":"O3B MPOWER F9","OBJECT_ID":"2025-153A","EPOCH":"2026-07-13T18:16:16.428000","CLASSIFICATION_TYPE":"U","MEAN_MOTION":5.00115697,"ECCENTRICITY":0.0006715,"INCLINATION":0.0612,"RA_OF_ASC_NODE":5.7574,"ARG_OF_PERICENTER":124.974,"MEAN_ANOMALY":229.3242,"EPHEMERIS_TYPE":0,"NORAD_CAT_ID":64866,"ELEMENT_SET_NO":999,"REV_AT_EPOCH":2089,"BSTAR":0,"MEAN_MOTION_DOT":-2.1e-7,"MEAN_MOTION_DDOT":0},{"OBJECT_NAME":"O3B MPOWER F10","OBJECT_ID":"2025-153B","EPOCH":"2026-07-13T17:27:23.264640","CLASSIFICATION_TYPE":"U","MEAN_MOTION":5.00114842,"ECCENTRICITY":0.0002419,"INCLINATION":0.0583,"RA_OF_ASC_NODE":2.3674,"ARG_OF_PERICENTER":245.1257,"MEAN_ANOMALY":112.4785,"EPHEMERIS_TYPE":0,"NORAD_CAT_ID":64867,"ELEMENT_SET_NO":999,"REV_AT_EPOCH":2336,"BSTAR":0,"MEAN_MOTION_DOT":-2.1e-7,"MEAN_MOTION_DDOT":0}]}
